STARLINK-35725          
1 67565U 26016E   26040.26649365  .00262723  00000+0  13246-2 0  9996
2 67565  97.2841  99.2693 0001116  94.5920 265.5475 15.80929237  2325
STARLINK-36394          
1 67566U 26016F   26040.25002315 -.00183630  00000+0 -97473-3 0  9990
2 67566  97.2784  99.2586 0001116  64.8258 224.0121 15.80894236  3573
STARLINK-36352          
1 67567U 26016G   26040.25002315 -.00106338  00000+0 -55978-3 0  9995
2 67567  97.2785  99.2554 0001051  85.5957 196.4674 15.80871611  3470
STARLINK-36435          
1 67568U 26016H   26040.25002315 -.00105343  00000+0 -55481-3 0  9990
2 67568  97.2784  99.2612 0001240  54.2212 240.6458 15.80858130  3475
STARLINK-36575          
1 67569U 26016J   26040.25002315 -.00108011  00000+0 -56915-3 0  9999
2 67569  97.2838  99.2663 0000887  88.8525 212.9008 15.80854879  3477
STARLINK-36562          
1 67570U 26016K   26040.25002315 -.00024062  00000+0 -12517-3 0  9994
2 67570  97.2842  99.2686 0001241  71.5624 235.3769 15.80826518  3475
STARLINK-36578          
1 67571U 26016L   26040.25002315 -.01957802  00000+0 -12978-1 0  9992
2 67571  97.2840  99.2696 0001605  88.4810 222.2951 15.78638591  3458
STARLINK-36350          
1 67572U 26016M   26040.25002315 -.00037165  00000+0 -19384-3 0  9993
2 67572  97.2779  99.2725 0000971  73.4927 246.7866 15.80847489  3368
STARLINK-36588          
1 67573U 26016N   26040.25002315 -.00853872  00000+0 -48429-2 0  9996
2 67573  97.2844  99.2764 0001016  73.5278 255.0781 15.81123019  3520
STARLINK-36594          
1 67574U 26016P   26040.25002315 -.00102107  00000+0 -53723-3 0  9999
2 67574  97.2843  99.2776 0001066  87.1158 246.6088 15.80871082  3521
STARLINK-36400          
1 67575U 26016Q   26040.25002315 -.00027535  00000+0 -14328-3 0  9999
2 67575  97.2768  99.2799 0001154  81.9843 257.3998 15.80844276  3416
STARLINK-36591          
1 67576U 26016R   26040.25002315 -.00007119  00000+0 -36431-4 0  9996
2 67576  97.2846  99.2830 0001079  88.6672 256.6197 15.80830923  3473
