CCSDS_OMM_VERS = 2.0
CREATION_DATE  = 
ORIGINATOR     = 

OBJECT_NAME    = STARLINK-35725
OBJECT_ID      = 2026-016E
CENTER_NAME    = EARTH
REF_FRAME      = TEME
TIME_SYSTEM    = UTC
MEAN_ELEMENT_THEORY = SGP/SGP4

EPOCH          = 2026-02-09T06:23:45.051360
MEAN_MOTION    = 15.80929237
ECCENTRICITY   = .00011168
INCLINATION    = 97.2841
RA_OF_ASC_NODE = 99.2693
ARG_OF_PERICENTER = 94.5920
MEAN_ANOMALY   = 265.5475

EPHEMERIS_TYPE = 0
CLASSIFICATION_TYPE = U
NORAD_CAT_ID   = 67565
ELEMENT_SET_NO = 999
REV_AT_EPOCH   = 232
BSTAR          = .13245785E-2
MEAN_MOTION_DOT = .262723E-2
MEAN_MOTION_DDOT = 0

CCSDS_OMM_VERS = 2.0
CREATION_DATE  = 
ORIGINATOR     = 

OBJECT_NAME    = STARLINK-36394
OBJECT_ID      = 2026-016F
CENTER_NAME    = EARTH
REF_FRAME      = TEME
TIME_SYSTEM    = UTC
MEAN_ELEMENT_THEORY = SGP/SGP4

EPOCH          = 2026-02-09T06:00:02.000160
MEAN_MOTION    = 15.80894236
ECCENTRICITY   = .00011161
INCLINATION    = 97.2784
RA_OF_ASC_NODE = 99.2586
ARG_OF_PERICENTER = 64.8258
MEAN_ANOMALY   = 224.0121

EPHEMERIS_TYPE = 0
CLASSIFICATION_TYPE = U
NORAD_CAT_ID   = 67566
ELEMENT_SET_NO = 999
REV_AT_EPOCH   = 357
BSTAR          = -.97473059E-3
MEAN_MOTION_DOT = -.18363E-2
MEAN_MOTION_DDOT = 0

CCSDS_OMM_VERS = 2.0
CREATION_DATE  = 
ORIGINATOR     = 

OBJECT_NAME    = STARLINK-36352
OBJECT_ID      = 2026-016G
CENTER_NAME    = EARTH
REF_FRAME      = TEME
TIME_SYSTEM    = UTC
MEAN_ELEMENT_THEORY = SGP/SGP4

EPOCH          = 2026-02-09T06:00:02.000160
MEAN_MOTION    = 15.80871611
ECCENTRICITY   = .00010514
INCLINATION    = 97.2785
RA_OF_ASC_NODE = 99.2554
ARG_OF_PERICENTER = 85.5957
MEAN_ANOMALY   = 196.4674

EPHEMERIS_TYPE = 0
CLASSIFICATION_TYPE = U
NORAD_CAT_ID   = 67567
ELEMENT_SET_NO = 999
REV_AT_EPOCH   = 347
BSTAR          = -.55978256E-3
MEAN_MOTION_DOT = -.106338E-2
MEAN_MOTION_DDOT = 0

CCSDS_OMM_VERS = 2.0
CREATION_DATE  = 
ORIGINATOR     = 

OBJECT_NAME    = STARLINK-36435
OBJECT_ID      = 2026-016H
CENTER_NAME    = EARTH
REF_FRAME      = TEME
TIME_SYSTEM    = UTC
MEAN_ELEMENT_THEORY = SGP/SGP4

EPOCH          = 2026-02-09T06:00:02.000160
MEAN_MOTION    = 15.80858130
ECCENTRICITY   = .000124
INCLINATION    = 97.2784
RA_OF_ASC_NODE = 99.2612
ARG_OF_PERICENTER = 54.2212
MEAN_ANOMALY   = 240.6458

EPHEMERIS_TYPE = 0
CLASSIFICATION_TYPE = U
NORAD_CAT_ID   = 67568
ELEMENT_SET_NO = 999
REV_AT_EPOCH   = 347
BSTAR          = -.55480727E-3
MEAN_MOTION_DOT = -.105343E-2
MEAN_MOTION_DDOT = 0

CCSDS_OMM_VERS = 2.0
CREATION_DATE  = 
ORIGINATOR     = 

OBJECT_NAME    = STARLINK-36575
OBJECT_ID      = 2026-016J
CENTER_NAME    = EARTH
REF_FRAME      = TEME
TIME_SYSTEM    = UTC
MEAN_ELEMENT_THEORY = SGP/SGP4

EPOCH          = 2026-02-09T06:00:02.000160
MEAN_MOTION    = 15.80854879
ECCENTRICITY   = .0000887
INCLINATION    = 97.2838
RA_OF_ASC_NODE = 99.2663
ARG_OF_PERICENTER = 88.8525
MEAN_ANOMALY   = 212.9008

EPHEMERIS_TYPE = 0
CLASSIFICATION_TYPE = U
NORAD_CAT_ID   = 67569
ELEMENT_SET_NO = 999
REV_AT_EPOCH   = 347
BSTAR          = -.56915412E-3
MEAN_MOTION_DOT = -.108011E-2
MEAN_MOTION_DDOT = 0

CCSDS_OMM_VERS = 2.0
CREATION_DATE  = 
ORIGINATOR     = 

OBJECT_NAME    = STARLINK-36562
OBJECT_ID      = 2026-016K
CENTER_NAME    = EARTH
REF_FRAME      = TEME
TIME_SYSTEM    = UTC
MEAN_ELEMENT_THEORY = SGP/SGP4

EPOCH          = 2026-02-09T06:00:02.000160
MEAN_MOTION    = 15.80826518
ECCENTRICITY   = .00012412
INCLINATION    = 97.2842
RA_OF_ASC_NODE = 99.2686
ARG_OF_PERICENTER = 71.5624
MEAN_ANOMALY   = 235.3769

EPHEMERIS_TYPE = 0
CLASSIFICATION_TYPE = U
NORAD_CAT_ID   = 67570
ELEMENT_SET_NO = 999
REV_AT_EPOCH   = 347
BSTAR          = -.12516588E-3
MEAN_MOTION_DOT = -.24062E-3
MEAN_MOTION_DDOT = 0

CCSDS_OMM_VERS = 2.0
CREATION_DATE  = 
ORIGINATOR     = 

OBJECT_NAME    = STARLINK-36578
OBJECT_ID      = 2026-016L
CENTER_NAME    = EARTH
REF_FRAME      = TEME
TIME_SYSTEM    = UTC
MEAN_ELEMENT_THEORY = SGP/SGP4

EPOCH          = 2026-02-09T06:00:02.000160
MEAN_MOTION    = 15.78638591
ECCENTRICITY   = .00016056
INCLINATION    = 97.2840
RA_OF_ASC_NODE = 99.2696
ARG_OF_PERICENTER = 88.4810
MEAN_ANOMALY   = 222.2951

EPHEMERIS_TYPE = 0
CLASSIFICATION_TYPE = U
NORAD_CAT_ID   = 67571
ELEMENT_SET_NO = 999
REV_AT_EPOCH   = 345
BSTAR          = -.12977653E-1
MEAN_MOTION_DOT = -.1957802E-1
MEAN_MOTION_DDOT = 0

CCSDS_OMM_VERS = 2.0
CREATION_DATE  = 
ORIGINATOR     = 

OBJECT_NAME    = STARLINK-36350
OBJECT_ID      = 2026-016M
CENTER_NAME    = EARTH
REF_FRAME      = TEME
TIME_SYSTEM    = UTC
MEAN_ELEMENT_THEORY = SGP/SGP4

EPOCH          = 2026-02-09T06:00:02.000160
MEAN_MOTION    = 15.80847489
ECCENTRICITY   = .00009715
INCLINATION    = 97.2779
RA_OF_ASC_NODE = 99.2725
ARG_OF_PERICENTER = 73.4927
MEAN_ANOMALY   = 246.7866

EPHEMERIS_TYPE = 0
CLASSIFICATION_TYPE = U
NORAD_CAT_ID   = 67572
ELEMENT_SET_NO = 999
REV_AT_EPOCH   = 336
BSTAR          = -.19384005E-3
MEAN_MOTION_DOT = -.37165E-3
MEAN_MOTION_DDOT = 0

CCSDS_OMM_VERS = 2.0
CREATION_DATE  = 
ORIGINATOR     = 

OBJECT_NAME    = STARLINK-36588
OBJECT_ID      = 2026-016N
CENTER_NAME    = EARTH
REF_FRAME      = TEME
TIME_SYSTEM    = UTC
MEAN_ELEMENT_THEORY = SGP/SGP4

EPOCH          = 2026-02-09T06:00:02.000160
MEAN_MOTION    = 15.81123019
ECCENTRICITY   = .00010164
INCLINATION    = 97.2844
RA_OF_ASC_NODE = 99.2764
ARG_OF_PERICENTER = 73.5278
MEAN_ANOMALY   = 255.0781

EPHEMERIS_TYPE = 0
CLASSIFICATION_TYPE = U
NORAD_CAT_ID   = 67573
ELEMENT_SET_NO = 999
REV_AT_EPOCH   = 352
BSTAR          = -.48428702E-2
MEAN_MOTION_DOT = -.853872E-2
MEAN_MOTION_DDOT = 0

CCSDS_OMM_VERS = 2.0
CREATION_DATE  = 
ORIGINATOR     = 

OBJECT_NAME    = STARLINK-36594
OBJECT_ID      = 2026-016P
CENTER_NAME    = EARTH
REF_FRAME      = TEME
TIME_SYSTEM    = UTC
MEAN_ELEMENT_THEORY = SGP/SGP4

EPOCH          = 2026-02-09T06:00:02.000160
MEAN_MOTION    = 15.80871082
ECCENTRICITY   = .0001066
INCLINATION    = 97.2843
RA_OF_ASC_NODE = 99.2776
ARG_OF_PERICENTER = 87.1158
MEAN_ANOMALY   = 246.6088

EPHEMERIS_TYPE = 0
CLASSIFICATION_TYPE = U
NORAD_CAT_ID   = 67574
ELEMENT_SET_NO = 999
REV_AT_EPOCH   = 352
BSTAR          = -.53723312E-3
MEAN_MOTION_DOT = -.102107E-2
MEAN_MOTION_DDOT = 0

CCSDS_OMM_VERS = 2.0
CREATION_DATE  = 
ORIGINATOR     = 

OBJECT_NAME    = STARLINK-36400
OBJECT_ID      = 2026-016Q
CENTER_NAME    = EARTH
REF_FRAME      = TEME
TIME_SYSTEM    = UTC
MEAN_ELEMENT_THEORY = SGP/SGP4

EPOCH          = 2026-02-09T06:00:02.000160
MEAN_MOTION    = 15.80844276
ECCENTRICITY   = .00011547
INCLINATION    = 97.2768
RA_OF_ASC_NODE = 99.2799
ARG_OF_PERICENTER = 81.9843
MEAN_ANOMALY   = 257.3998

EPHEMERIS_TYPE = 0
CLASSIFICATION_TYPE = U
NORAD_CAT_ID   = 67575
ELEMENT_SET_NO = 999
REV_AT_EPOCH   = 341
BSTAR          = -.14328293E-3
MEAN_MOTION_DOT = -.27535E-3
MEAN_MOTION_DDOT = 0

CCSDS_OMM_VERS = 2.0
CREATION_DATE  = 
ORIGINATOR     = 

OBJECT_NAME    = STARLINK-36591
OBJECT_ID      = 2026-016R
CENTER_NAME    = EARTH
REF_FRAME      = TEME
TIME_SYSTEM    = UTC
MEAN_ELEMENT_THEORY = SGP/SGP4

EPOCH          = 2026-02-09T06:00:02.000160
MEAN_MOTION    = 15.80830923
ECCENTRICITY   = .00010796
INCLINATION    = 97.2846
RA_OF_ASC_NODE = 99.2830
ARG_OF_PERICENTER = 88.6672
MEAN_ANOMALY   = 256.6197

EPHEMERIS_TYPE = 0
CLASSIFICATION_TYPE = U
NORAD_CAT_ID   = 67576
ELEMENT_SET_NO = 999
REV_AT_EPOCH   = 347
BSTAR          = -.36431211E-4
MEAN_MOTION_DOT = -.7119E-4
MEAN_MOTION_DDOT = 0

